start=new Date('2022-08-23T00:00:00.000Z').valueOf();
sats=[{"MEAN_MOTION":"15.06392053","GP_ID":"210740008","OBJECT_TYPE":"PAYLOAD","FILE":"3543757","PERIAPSIS":"546.196","CENTER_NAME":"EARTH","APOAPSIS":"548.279","ELEMENT_SET_NO":"999","MEAN_MOTION_DOT":"0.00000445","RA_OF_ASC_NODE":"192.5170","MEAN_MOTION_DDOT":"0.0000000000000","PERIOD":"95.593","RCS_SIZE":"LARGE","ECCENTRICITY":"0.00015040","OBJECT_NAME":"STARLINK-1259","EPOCH":"2022-08-22T03:35:43.806048","INCLINATION":"53.0528","REV_AT_EPOCH":"13468","COUNTRY_CODE":"US","TLE_LINE1":"1 45403U 20019AV  22234.14981257  .00000445  00000-0  48768-4 0  9998","SEMIMAJOR_AXIS":"6925.373","LAUNCH_DATE":"2020-03-18","ARG_OF_PERICENTER":"70.1136","SITE":"AFETR","NORAD_CAT_ID":"45403","TIME_SYSTEM":"UTC","DECAY_DATE":null,"MEAN_ANOMALY":"290.0015","BSTAR":"0.00004876800000","EPHEMERIS_TYPE":"0","OBJECT_ID":"2020-019AV","REF_FRAME":"TEME","MEAN_ELEMENT_THEORY":"SGP4","CLASSIFICATION_TYPE":"U","TLE_LINE2":"2 45403  53.0528 192.5170 0001504  70.1136 290.0015 15.06392053134687"},{"DECAY_DATE":null,"BSTAR":"0.00001618000000","MEAN_ANOMALY":"288.7833","TIME_SYSTEM":"UTC","OBJECT_ID":"2020-019AW","REF_FRAME":"TEME","EPHEMERIS_TYPE":"0","ARG_OF_PERICENTER":"71.3340","TLE_LINE1":"1 45404U 20019AW  22234.89068718 -.00000041  00000-0  16180-4 0  9995","SEMIMAJOR_AXIS":"6925.372","LAUNCH_DATE":"2020-03-18","SITE":"AFETR","NORAD_CAT_ID":"45404","CLASSIFICATION_TYPE":"U","TLE_LINE2":"2 45404  53.0545 189.2053 0001689  71.3340 288.7833 15.06392206134709","MEAN_ELEMENT_THEORY":"SGP4","APOAPSIS":"548.407","ELEMENT_SET_NO":"999","MEAN_MOTION_DOT":"-0.00000041","MEAN_MOTION_DDOT":"0.0000000000000","RA_OF_ASC_NODE":"189.2053","GP_ID":"210773453","OBJECT_TYPE":"PAYLOAD","MEAN_MOTION":"15.06392206","PERIAPSIS":"546.068","CENTER_NAME":"EARTH","FILE":"3544179","INCLINATION":"53.0545","EPOCH":"2022-08-22T21:22:35.372352","REV_AT_EPOCH":"13470","COUNTRY_CODE":"US","RCS_SIZE":"LARGE","ECCENTRICITY":"0.00016890","PERIOD":"95.593","OBJECT_NAME":"STARLINK-1260"},{"ECCENTRICITY":"0.00014610","RCS_SIZE":"LARGE","PERIOD":"95.593","OBJECT_NAME":"STARLINK-1263","INCLINATION":"53.0562","EPOCH":"2022-08-22T13:03:39.619584","COUNTRY_CODE":"US","REV_AT_EPOCH":"13465","OBJECT_TYPE":"PAYLOAD","GP_ID":"210773703","MEAN_MOTION":"15.06393879","PERIAPSIS":"546.221","CENTER_NAME":"EARTH","FILE":"3544179","MEAN_MOTION_DOT":"0.00000624","ELEMENT_SET_NO":"999","APOAPSIS":"548.244","MEAN_MOTION_DDOT":"0.0000000000000","RA_OF_ASC_NODE":"190.7628","MEAN_ELEMENT_THEORY":"SGP4","TLE_LINE2":"2 45405  53.0562 190.7628 0001461  73.9428 286.1722 15.06393879134657","CLASSIFICATION_TYPE":"U","ARG_OF_PERICENTER":"73.9428","LAUNCH_DATE":"2020-03-18","SEMIMAJOR_AXIS":"6925.367","TLE_LINE1":"1 45405U 20019AX  22234.54420856  .00000624  00000-0  60785-4 0  9999","SITE":"AFETR","NORAD_CAT_ID":"45405","DECAY_DATE":null,"MEAN_ANOMALY":"286.1722","BSTAR":"0.00006078500000","TIME_SYSTEM":"UTC","REF_FRAME":"TEME","OBJECT_ID":"2020-019AX","EPHEMERIS_TYPE":"0"},{"OBJECT_NAME":"STARLINK-1265","PERIOD":"95.593","ECCENTRICITY":"0.00016320","RCS_SIZE":"LARGE","COUNTRY_CODE":"US","REV_AT_EPOCH":"13459","EPOCH":"2022-08-22T03:41:02.292000","INCLINATION":"53.0542","FILE":"3543757","PERIAPSIS":"546.109","CENTER_NAME":"EARTH","MEAN_MOTION":"15.06391617","OBJECT_TYPE":"PAYLOAD","GP_ID":"210739764","MEAN_MOTION_DDOT":"0.0000000000000","RA_OF_ASC_NODE":"192.4954","MEAN_MOTION_DOT":"0.00002462","ELEMENT_SET_NO":"999","APOAPSIS":"548.369","MEAN_ELEMENT_THEORY":"SGP4","TLE_LINE2":"2 45406  53.0542 192.4954 0001632  71.5607 288.5560 15.06391617134597","CLASSIFICATION_TYPE":"U","SITE":"AFETR","NORAD_CAT_ID":"45406","LAUNCH_DATE":"2020-03-18","SEMIMAJOR_AXIS":"6925.374","TLE_LINE1":"1 45406U 20019AY  22234.15349875  .00002462  00000-0  18416-3 0  9993","ARG_OF_PERICENTER":"71.5607","EPHEMERIS_TYPE":"0","REF_FRAME":"TEME","OBJECT_ID":"2020-019AY","TIME_SYSTEM":"UTC","DECAY_DATE":null,"MEAN_ANOMALY":"288.5560","BSTAR":"0.00018416000000"},{"RA_OF_ASC_NODE":"189.4755","MEAN_MOTION_DDOT":"0.0000000000000","APOAPSIS":"548.313","ELEMENT_SET_NO":"999","MEAN_MOTION_DOT":"0.00003181","FILE":"3544179","CENTER_NAME":"EARTH","PERIAPSIS":"546.086","MEAN_MOTION":"15.06404463","GP_ID":"210775203","OBJECT_TYPE":"PAYLOAD","REV_AT_EPOCH":"13469","COUNTRY_CODE":"US","EPOCH":"2022-08-22T19:56:18.337920","INCLINATION":"53.0524","OBJECT_NAME":"STARLINK-1275","PERIOD":"95.592","RCS_SIZE":"LARGE","ECCENTRICITY":"0.00016080","EPHEMERIS_TYPE":"0","OBJECT_ID":"2020-019AZ","REF_FRAME":"TEME","TIME_SYSTEM":"UTC","BSTAR":"0.00023232000000","DECAY_DATE":null,"MEAN_ANOMALY":"284.1497","SITE":"AFETR","NORAD_CAT_ID":"45407","TLE_LINE1":"1 45407U 20019AZ  22234.83076780  .00003181  00000-0  23232-3 0  9992","LAUNCH_DATE":"2020-03-18","SEMIMAJOR_AXIS":"6925.335","ARG_OF_PERICENTER":"75.9671","TLE_LINE2":"2 45407  53.0524 189.4755 0001608  75.9671 284.1497 15.06404463134691","CLASSIFICATION_TYPE":"U","MEAN_ELEMENT_THEORY":"SGP4"},{"MEAN_ELEMENT_THEORY":"SGP4","CLASSIFICATION_TYPE":"U","TLE_LINE2":"2 45408  53.0559 221.1925 0001560  77.1765 282.9398 15.06392311134221","LAUNCH_DATE":"2020-03-18","SEMIMAJOR_AXIS":"6925.372","TLE_LINE1":"1 45408U 20019BA  22234.44560828  .00000112  00000-0  26444-4 0  9991","ARG_OF_PERICENTER":"77.1765","SITE":"AFETR","NORAD_CAT_ID":"45408","TIME_SYSTEM":"UTC","DECAY_DATE":null,"BSTAR":"0.00002644400000","MEAN_ANOMALY":"282.9398","EPHEMERIS_TYPE":"0","REF_FRAME":"TEME","OBJECT_ID":"2020-019BA","PERIOD":"95.593","ECCENTRICITY":"0.00015600","RCS_SIZE":"LARGE","OBJECT_NAME":"STARLINK-1278","EPOCH":"2022-08-22T10:41:40.555392","INCLINATION":"53.0559","COUNTRY_CODE":"US","REV_AT_EPOCH":"13422","MEAN_MOTION":"15.06392311","OBJECT_TYPE":"PAYLOAD","GP_ID":"210773952","FILE":"3544179","CENTER_NAME":"EARTH","PERIAPSIS":"546.157","MEAN_MOTION_DOT":"0.00000112","ELEMENT_SET_NO":"999","APOAPSIS":"548.317","RA_OF_ASC_NODE":"221.1925","MEAN_MOTION_DDOT":"0.0000000000000"},{"TLE_LINE2":"2 45409  53.0566 190.6214 0001739  70.7446 289.3731 15.06390166134660","CLASSIFICATION_TYPE":"U","MEAN_ELEMENT_THEORY":"SGP4","REF_FRAME":"TEME","OBJECT_ID":"2020-019BB","EPHEMERIS_TYPE":"0","MEAN_ANOMALY":"289.3731","DECAY_DATE":null,"BSTAR":"0.00002901300000","TIME_SYSTEM":"UTC","SITE":"AFETR","NORAD_CAT_ID":"45409","ARG_OF_PERICENTER":"70.7446","SEMIMAJOR_AXIS":"6925.379","LAUNCH_DATE":"2020-03-18","TLE_LINE1":"1 45409U 20019BB  22234.57370158  .00000150  00000-0  29013-4 0  9998","COUNTRY_CODE":"US","REV_AT_EPOCH":"13466","INCLINATION":"53.0566","EPOCH":"2022-08-22T13:46:07.816512","OBJECT_NAME":"STARLINK-1282","ECCENTRICITY":"0.00017390","RCS_SIZE":"LARGE","PERIOD":"95.593","MEAN_MOTION_DDOT":"0.0000000000000","RA_OF_ASC_NODE":"190.6214","MEAN_MOTION_DOT":"0.00000150","APOAPSIS":"548.448","ELEMENT_SET_NO":"999","CENTER_NAME":"EARTH","PERIAPSIS":"546.039","FILE":"3544179","OBJECT_TYPE":"PAYLOAD","GP_ID":"210774202","MEAN_MOTION":"15.06390166"},{"EPOCH":"2022-08-22T14:07:20.641440","INCLINATION":"53.0546","COUNTRY_CODE":"US","REV_AT_EPOCH":"13468","PERIOD":"95.592","ECCENTRICITY":"0.00014420","RCS_SIZE":"LARGE","OBJECT_NAME":"STARLINK-1293","MEAN_MOTION_DOT":"0.00001621","APOAPSIS":"548.217","ELEMENT_SET_NO":"999","RA_OF_ASC_NODE":"190.5438","MEAN_MOTION_DDOT":"0.0000000000000","MEAN_MOTION":"15.06398454","OBJECT_TYPE":"PAYLOAD","GP_ID":"210774954","FILE":"3544179","PERIAPSIS":"546.220","CENTER_NAME":"EARTH","CLASSIFICATION_TYPE":"U","TLE_LINE2":"2 45411  53.0546 190.5438 0001442  80.9952 279.1200 15.06398454134682","MEAN_ELEMENT_THEORY":"SGP4","TIME_SYSTEM":"UTC","DECAY_DATE":null,"BSTAR":"0.00012770000000","MEAN_ANOMALY":"279.1200","EPHEMERIS_TYPE":"0","REF_FRAME":"TEME","OBJECT_ID":"2020-019BD","LAUNCH_DATE":"2020-03-18","SEMIMAJOR_AXIS":"6925.353","TLE_LINE1":"1 45411U 20019BD  22234.58843335  .00001621  00000-0  12770-3 0  9999","ARG_OF_PERICENTER":"80.9952","SITE":"AFETR","NORAD_CAT_ID":"45411"},{"RA_OF_ASC_NODE":"191.8870","MEAN_MOTION_DDOT":"0.0000000000000","MEAN_MOTION_DOT":"0.00001006","ELEMENT_SET_NO":"999","APOAPSIS":"548.381","FILE":"3543757","CENTER_NAME":"EARTH","PERIAPSIS":"546.116","MEAN_MOTION":"15.06388522","OBJECT_TYPE":"PAYLOAD","GP_ID":"210740009","COUNTRY_CODE":"US","REV_AT_EPOCH":"13461","EPOCH":"2022-08-22T06:57:25.503264","INCLINATION":"53.0536","OBJECT_NAME":"STARLINK-1296","PERIOD":"95.593","ECCENTRICITY":"0.00016350","RCS_SIZE":"LARGE","EPHEMERIS_TYPE":"0","REF_FRAME":"TEME","OBJECT_ID":"2020-019BE","TIME_SYSTEM":"UTC","DECAY_DATE":null,"MEAN_ANOMALY":"298.2173","BSTAR":"0.00008643300000","SITE":"AFETR","NORAD_CAT_ID":"45412","LAUNCH_DATE":"2020-03-18","SEMIMAJOR_AXIS":"6925.384","TLE_LINE1":"1 45412U 20019BE  22234.28987851  .00001006  00000-0  86433-4 0  9994","ARG_OF_PERICENTER":"61.8981","CLASSIFICATION_TYPE":"U","TLE_LINE2":"2 45412  53.0536 191.8870 0001635  61.8981 298.2173 15.06388522134619","MEAN_ELEMENT_THEORY":"SGP4"},{"REV_AT_EPOCH":"13472","COUNTRY_CODE":"US","EPOCH":"2022-08-22T09:15:24.937056","INCLINATION":"53.0542","OBJECT_NAME":"STARLINK-1298","PERIOD":"95.592","RCS_SIZE":"LARGE","ECCENTRICITY":"0.00012990","RA_OF_ASC_NODE":"191.4544","MEAN_MOTION_DDOT":"0.0000000000000","APOAPSIS":"548.116","ELEMENT_SET_NO":"999","MEAN_MOTION_DOT":"0.00000877","FILE":"3544179","CENTER_NAME":"EARTH","PERIAPSIS":"546.316","MEAN_MOTION":"15.06399191","GP_ID":"210773454","OBJECT_TYPE":"PAYLOAD","TLE_LINE2":"2 45413  53.0542 191.4544 0001299  64.4118 295.7005 15.06399191134720","CLASSIFICATION_TYPE":"U","MEAN_ELEMENT_THEORY":"SGP4","EPHEMERIS_TYPE":"0","OBJECT_ID":"2020-019BF","REF_FRAME":"TEME","TIME_SYSTEM":"UTC","DECAY_DATE":null,"BSTAR":"0.00007779100000","MEAN_ANOMALY":"295.7005","NORAD_CAT_ID":"45413","SITE":"AFETR","TLE_LINE1":"1 45413U 20019BF  22234.38570529  .00000877  00000-0  77791-4 0  9998","SEMIMAJOR_AXIS":"6925.351","LAUNCH_DATE":"2020-03-18","ARG_OF_PERICENTER":"64.4118"}];
